[{"OBJECT_NAME":"ONEWEB-0521","OBJECT_ID":"2022-138AC","EPOCH":"2026-03-09T23:52:17.048064","MEAN_MOTION":13.19724197,"ECCENTRICITY":0.00014935,"INCLINATION":87.9237,"RA_OF_ASC_NODE":324.7113,"ARG_OF_PERICENTER":73.5755,"MEAN_ANOMALY":286.5541,"EPHEMERIS_TYPE":0,"CLASSIFICATION_TYPE":"U","NORAD_CAT_ID":54139,"ELEMENT_SET_NO":999,"REV_AT_EPOCH":16368,"BSTAR":-0.00069749736,"MEAN_MOTION_DOT":-2.66e-6,"MEAN_MOTION_DDOT":0},{"OBJECT_NAME":"BREEZE-KM R\/B","OBJECT_ID":"2012-041E","EPOCH":"2026-03-09T23:17:23.015328","MEAN_MOTION":12.81846597,"ECCENTRICITY":0.02261832,"INCLINATION":82.473,"RA_OF_ASC_NODE":261.3266,"ARG_OF_PERICENTER":129.2556,"MEAN_ANOMALY":232.8857,"EPHEMERIS_TYPE":0,"CLASSIFICATION_TYPE":"U","NORAD_CAT_ID":38737,"ELEMENT_SET_NO":999,"REV_AT_EPOCH":63708,"BSTAR":3.0978408e-5,"MEAN_MOTION_DOT":2.1e-7,"MEAN_MOTION_DDOT":0}]
